{
    "links": {
        "self": "http://www.neowsapp.com/rest/v1/neo/3172325?api_key=iIulBulltgU6a56xZRHN4H3l9WmuAYTsLGpBGhQ2"
    },
    "id": "3172325",
    "neo_reference_id": "3172325",
    "name": "(2004 BF11)",
    "designation": "2004 BF11",
    "nasa_jpl_url": "http://ssd.jpl.nasa.gov/sbdb.cgi?sstr=3172325",
    "absolute_magnitude_h": 24.0,
    "estimated_diameter": {
        "kilometers": {
            "estimated_diameter_min": 0.0421264611,
            "estimated_diameter_max": 0.0941976306
        },
        "meters": {
            "estimated_diameter_min": 42.1264610556,
            "estimated_diameter_max": 94.1976305719
        },
        "miles": {
            "estimated_diameter_min": 0.0261761612,
            "estimated_diameter_max": 0.0585316759
        },
        "feet": {
            "estimated_diameter_min": 138.2101784897,
            "estimated_diameter_max": 309.0473542854
        }
    },
    "is_potentially_hazardous_asteroid": false,
    "close_approach_data": [
        {
            "close_approach_date": "1918-01-15",
            "close_approach_date_full": "1918-Jan-15 12:32",
            "epoch_date_close_approach": -1639740480000,
            "relative_velocity": {
                "kilometers_per_second": "3.186873188",
                "kilometers_per_hour": "11472.7434768012",
                "miles_per_hour": "7128.7166342379"
            },
            "miss_distance": {
                "astronomical": "0.1419013052",
                "lunar": "55.1996077228",
                "kilometers": "21228133.008139924",
                "miles": "13190550.1973179912"
            },
            "orbiting_body": "Earth"
        },
        {
            "close_approach_date": "1991-01-16",
            "close_approach_date_full": "1991-Jan-16 18:25",
            "epoch_date_close_approach": 664050300000,
            "relative_velocity": {
                "kilometers_per_second": "5.0589208463",
                "kilometers_per_hour": "18212.1150465493",
                "miles_per_hour": "11316.3000410073"
            },
            "miss_distance": {
                "astronomical": "0.234916397",
                "lunar": "91.382478433",
                "kilometers": "35142992.61927439",
                "miles": "21836843.025750982"
            },
            "orbiting_body": "Earth"
        },
        {
            "close_approach_date": "2004-01-17",
            "close_approach_date_full": "2004-Jan-17 07:17",
            "epoch_date_close_approach": 1074323820000,
            "relative_velocity": {
                "kilometers_per_second": "3.1685003072",
                "kilometers_per_hour": "11406.601105795",
                "miles_per_hour": "7087.618337098"
            },
            "miss_distance": {
                "astronomical": "0.1423979318",
                "lunar": "55.3927954702",
                "kilometers": "21302427.289685266",
                "miles": "13236714.5232020308"
            },
            "orbiting_body": "Earth"
        },
        {
            "close_approach_date": "2017-01-16",
            "close_approach_date_full": "2017-Jan-16 18:32",
            "epoch_date_close_approach": 1484591520000,
            "relative_velocity": {
                "kilometers_per_second": "4.4023240418",
                "kilometers_per_hour": "15848.3665504788",
                "miles_per_hour": "9847.5586491017"
            },
            "miss_distance": {
                "astronomical": "0.2069493269",
                "lunar": "80.5032881641",
                "kilometers": "30959178.502173703",
                "miles": "19237141.4831469814"
            },
            "orbiting_body": "Earth"
        },
        {
            "close_approach_date": "2090-01-17",
            "close_approach_date_full": "2090-Jan-17 19:00",
            "epoch_date_close_approach": 3788362800000,
            "relative_velocity": {
                "kilometers_per_second": "3.2564418579",
                "kilometers_per_hour": "11723.1906885612",
                "miles_per_hour": "7284.3347920118"
            },
            "miss_distance": {
                "astronomical": "0.147248367",
                "lunar": "57.279614763",
                "kilometers": "22028042.06417829",
                "miles": "13687590.636668802"
            },
            "orbiting_body": "Earth"
        }
    ],
    "orbital_data": {
        "orbit_id": "11",
        "orbit_determination_date": "2017-04-06 09:13:17",
        "first_observation_date": "2004-01-18",
        "last_observation_date": "2004-02-22",
        "data_arc_in_days": 35,
        "observations_used": 37,
        "orbit_uncertainty": "7",
        "minimum_orbit_intersection": ".14157",
        "jupiter_tisserand_invariant": "3.850",
        "epoch_osculation": "2459000.5",
        "eccentricity": ".4060789067085408",
        "semi_major_axis": "1.893857025392287",
        "inclination": "1.805835301955655",
        "ascending_node_longitude": "276.9897066738356",
        "orbital_period": "951.9611190720993",
        "perihelion_distance": "1.124801635058698",
        "perihelion_argument": "199.191807068617",
        "aphelion_distance": "2.662912415725875",
        "perihelion_time": "2458729.644656675238",
        "mean_anomaly": "102.4284728056516",
        "mean_motion": ".3781667053281558",
        "equinox": "J2000",
        "orbit_class": {
            "orbit_class_type": "AMO",
            "orbit_class_description": "Near-Earth asteroid orbits similar to that of 1221 Amor",
            "orbit_class_range": "1.017 AU < q (perihelion) < 1.3 AU"
        }
    },
    "is_sentry_object": false
}